*******************************************************************************
Ephemeris / WWW_USER Mon Mar 10 14:44:41 2025 Pasadena, USA      / Horizons    
*******************************************************************************
Target body name: (2018 RP1)                      {source: JPL#4}
Center body name: Earth (399)                     {source: DE441}
Center-site name: Gemini South Obs., Cerro Pachon
*******************************************************************************
Start time      : A.D. 2018-Sep-20 22:46:00.0000 UT      
Stop  time      : A.D. 2018-Sep-21 10:25:00.0000 UT      
Step-size       : 1 minutes
*******************************************************************************
Target pole/equ : undefined
Target radii    : undefined                                                    
Center geodetic : 289.2634, -30.2406227, 2.71233  {E-lon(deg),Lat(deg),Alt(km)}
Center cylindric: 289.2634,5517.21435,-3194.81213 {E-lon(deg),Dxy(km),Dz(km)}
Center pole/equ : ITRF93                          {East-longitude positive}
Center radii    : 6378.137, 6378.137, 6356.752 km {Equator_a, b, pole_c}       
Target primary  : Sun
Vis. interferer : MOON (R_eq= 1737.400) km        {source: DE441}
Rel. light bend : Sun                             {source: DE441}
Rel. lght bnd GM: 1.3271E+11 km^3/s^2                                          
Small-body perts: Yes                             {source: SB441-N16}
Atmos refraction: NO (AIRLESS)
RA format       : HMS
Time format     : CAL 
Calendar mode   : Mixed Julian/Gregorian
RTS-only print  : NO       
EOP file        : eop.250307.p250603                                           
EOP coverage    : DATA-BASED 1962-JAN-20 TO 2025-MAR-07. PREDICTS-> 2025-JUN-02
Units conversion: 1 au= 149597870.700 km, c= 299792.458 km/s, 1 day= 86400.0 s 
Table cut-offs 1: Elevation (-90.0deg=NO ),Airmass (>38.000=NO), Daylight (YES)
Table cut-offs 2: Solar elongation (  0.0,180.0=NO ),Local Hour Angle( 0.0=NO )
Table cut-offs 3: RA/DEC angular rate (     0.0=NO )                           
*******************************************************************************
Initial IAU76/J2000 heliocentric ecliptic osculating elements (au, days, deg.):
  EPOCH=  2458376.5 ! 2018-Sep-15.00 (TDB)         Residual RMS= .12525        
   EC= .3382936082205208   QR= .9576766169446216   TP= 2458412.3293739939      
   OM= 161.903422202901    W=  234.5704247756858   IN= 9.466091569921099       
  Equivalent ICRF heliocentric cartesian coordinates (au, au/d):
   X= 1.017940821946709E+00  Y=-7.278189102440286E-02  Z=-7.249995171787897E-02
  VX=-1.754817228708964E-03 VY= 1.862872143473751E-02 VZ= 4.887370356508847E-03
Asteroid physical parameters (km, seconds, rotational period in hours):        
   GM= n.a.                RAD= n.a.               ROTPER= n.a.                
   H= 24.3                 G= .150                 B-V= n.a.                   
                           ALBEDO= n.a.            STYP= n.a.                  
*******************************************************************************
 Date__(UT)__HR:MN     R.A._________(ICRF)_________DEC
******************************************************
$$SOE
 2018-Sep-21 00:49  m  06 03 37.419163 -19 31 53.90626
 2018-Sep-21 00:50  m  06 03 37.925905 -19 31 55.24318
 2018-Sep-21 00:51  m  06 03 38.432556 -19 31 56.58046
 2018-Sep-21 00:52  m  06 03 38.939114 -19 31 57.91809
 2018-Sep-21 00:53  m  06 03 39.445581 -19 31 59.25608
 2018-Sep-21 00:54  m  06 03 39.951954 -19 32 00.59441
 2018-Sep-21 00:55  m  06 03 40.458235 -19 32 01.93310
 2018-Sep-21 00:56  m  06 03 40.964422 -19 32 03.27213
 2018-Sep-21 00:57  m  06 03 41.470514 -19 32 04.61151
 2018-Sep-21 00:58  m  06 03 41.976512 -19 32 05.95124
 2018-Sep-21 00:59  m  06 03 42.482415 -19 32 07.29132
 2018-Sep-21 01:00  m  06 03 42.988223 -19 32 08.63174
 2018-Sep-21 01:01  m  06 03 43.493934 -19 32 09.97250
 2018-Sep-21 01:02  m  06 03 43.999550 -19 32 11.31360
 2018-Sep-21 01:03  m  06 03 44.505068 -19 32 12.65504
 2018-Sep-21 01:04  m  06 03 45.010489 -19 32 13.99682
 2018-Sep-21 01:05  m  06 03 45.515812 -19 32 15.33893
 2018-Sep-21 01:06  m  06 03 46.021037 -19 32 16.68138
 2018-Sep-21 01:07  m  06 03 46.526164 -19 32 18.02417
 2018-Sep-21 01:08  m  06 03 47.031191 -19 32 19.36729
 2018-Sep-21 01:09  m  06 03 47.536119 -19 32 20.71073
 2018-Sep-21 01:10  m  06 03 48.040947 -19 32 22.05451
 2018-Sep-21 01:11  m  06 03 48.545674 -19 32 23.39862
 2018-Sep-21 01:12  m  06 03 49.050301 -19 32 24.74305
 2018-Sep-21 01:13  m  06 03 49.554827 -19 32 26.08780
 2018-Sep-21 01:14  m  06 03 50.059250 -19 32 27.43288
 2018-Sep-21 01:15  m  06 03 50.563572 -19 32 28.77829
 2018-Sep-21 01:16  m  06 03 51.067791 -19 32 30.12401
 2018-Sep-21 01:17  m  06 03 51.571907 -19 32 31.47005
 2018-Sep-21 01:18  m  06 03 52.075920 -19 32 32.81641
 2018-Sep-21 01:19  m  06 03 52.579829 -19 32 34.16308
 2018-Sep-21 01:20  m  06 03 53.083634 -19 32 35.51007
 2018-Sep-21 01:21  m  06 03 53.587334 -19 32 36.85737
 2018-Sep-21 01:22  m  06 03 54.090929 -19 32 38.20499
 2018-Sep-21 01:23  m  06 03 54.594418 -19 32 39.55291
 2018-Sep-21 01:24  m  06 03 55.097801 -19 32 40.90114
 2018-Sep-21 01:25  m  06 03 55.601079 -19 32 42.24967
 2018-Sep-21 01:26  m  06 03 56.104249 -19 32 43.59851
 2018-Sep-21 01:27  m  06 03 56.607312 -19 32 44.94766
 2018-Sep-21 01:28  m  06 03 57.110267 -19 32 46.29710
 2018-Sep-21 01:29  m  06 03 57.613115 -19 32 47.64685
 2018-Sep-21 01:30  m  06 03 58.115854 -19 32 48.99689
 2018-Sep-21 01:31  m  06 03 58.618484 -19 32 50.34723
 2018-Sep-21 01:32  m  06 03 59.121005 -19 32 51.69787
 2018-Sep-21 01:33  m  06 03 59.623417 -19 32 53.04880
 2018-Sep-21 01:34  m  06 04 00.125718 -19 32 54.40002
 2018-Sep-21 01:35  m  06 04 00.627909 -19 32 55.75153
 2018-Sep-21 01:36  m  06 04 01.129989 -19 32 57.10333
 2018-Sep-21 01:37  m  06 04 01.631958 -19 32 58.45541
 2018-Sep-21 01:38  m  06 04 02.133815 -19 32 59.80778
 2018-Sep-21 01:39  m  06 04 02.635561 -19 33 01.16043
 2018-Sep-21 01:40  m  06 04 03.137194 -19 33 02.51337
 2018-Sep-21 01:41  m  06 04 03.638714 -19 33 03.86658
 2018-Sep-21 01:42  m  06 04 04.140120 -19 33 05.22007
 2018-Sep-21 01:43  m  06 04 04.641414 -19 33 06.57384
 2018-Sep-21 01:44  m  06 04 05.142593 -19 33 07.92788
 2018-Sep-21 01:45  m  06 04 05.643658 -19 33 09.28220
 2018-Sep-21 01:46  m  06 04 06.144608 -19 33 10.63678
 2018-Sep-21 01:47  m  06 04 06.645443 -19 33 11.99164
 2018-Sep-21 01:48  m  06 04 07.146162 -19 33 13.34676
 2018-Sep-21 01:49  m  06 04 07.646766 -19 33 14.70214
 2018-Sep-21 01:50  m  06 04 08.147253 -19 33 16.05779
 2018-Sep-21 01:51  m  06 04 08.647624 -19 33 17.41371
 2018-Sep-21 01:52  m  06 04 09.147878 -19 33 18.76988
 2018-Sep-21 01:53  m  06 04 09.648014 -19 33 20.12631
 2018-Sep-21 01:54  m  06 04 10.148033 -19 33 21.48299
 2018-Sep-21 01:55  m  06 04 10.647933 -19 33 22.83994
 2018-Sep-21 01:56  m  06 04 11.147715 -19 33 24.19713
 2018-Sep-21 01:57  m  06 04 11.647378 -19 33 25.55457
 2018-Sep-21 01:58  m  06 04 12.146922 -19 33 26.91227
 2018-Sep-21 01:59  m  06 04 12.646347 -19 33 28.27021
 2018-Sep-21 02:00  m  06 04 13.145651 -19 33 29.62839
 2018-Sep-21 02:01  m  06 04 13.644835 -19 33 30.98682
 2018-Sep-21 02:02  m  06 04 14.143899 -19 33 32.34549
 2018-Sep-21 02:03  m  06 04 14.642841 -19 33 33.70440
 2018-Sep-21 02:04  m  06 04 15.141663 -19 33 35.06355
 2018-Sep-21 02:05  m  06 04 15.640362 -19 33 36.42293
 2018-Sep-21 02:06  m  06 04 16.138940 -19 33 37.78255
 2018-Sep-21 02:07  m  06 04 16.637395 -19 33 39.14239
 2018-Sep-21 02:08  m  06 04 17.135727 -19 33 40.50247
 2018-Sep-21 02:09  m  06 04 17.633936 -19 33 41.86278
 2018-Sep-21 02:10  m  06 04 18.132022 -19 33 43.22331
 2018-Sep-21 02:11  m  06 04 18.629984 -19 33 44.58406
 2018-Sep-21 02:12  m  06 04 19.127822 -19 33 45.94504
 2018-Sep-21 02:13  m  06 04 19.625536 -19 33 47.30624
 2018-Sep-21 02:14  m  06 04 20.123125 -19 33 48.66765
 2018-Sep-21 02:15  m  06 04 20.620588 -19 33 50.02929
 2018-Sep-21 02:16  m  06 04 21.117926 -19 33 51.39113
 2018-Sep-21 02:17  m  06 04 21.615139 -19 33 52.75319
 2018-Sep-21 02:18  m  06 04 22.112225 -19 33 54.11545
 2018-Sep-21 02:19  m  06 04 22.609185 -19 33 55.47793
 2018-Sep-21 02:20  m  06 04 23.106019 -19 33 56.84061
 2018-Sep-21 02:21  m  06 04 23.602725 -19 33 58.20350
 2018-Sep-21 02:22  m  06 04 24.099304 -19 33 59.56658
 2018-Sep-21 02:23  m  06 04 24.595755 -19 34 00.92987
 2018-Sep-21 02:24  m  06 04 25.092078 -19 34 02.29335
 2018-Sep-21 02:25  m  06 04 25.588273 -19 34 03.65703
 2018-Sep-21 02:26  m  06 04 26.084339 -19 34 05.02091
 2018-Sep-21 02:27  m  06 04 26.580277 -19 34 06.38497
 2018-Sep-21 02:28  m  06 04 27.076085 -19 34 07.74923
 2018-Sep-21 02:29  m  06 04 27.571763 -19 34 09.11367
 2018-Sep-21 02:30  m  06 04 28.067312 -19 34 10.47829
 2018-Sep-21 02:31  m  06 04 28.562731 -19 34 11.84310
 2018-Sep-21 02:32  m  06 04 29.058019 -19 34 13.20810
 2018-Sep-21 02:33  m  06 04 29.553176 -19 34 14.57327
 2018-Sep-21 02:34  m  06 04 30.048203 -19 34 15.93861
 2018-Sep-21 02:35  m  06 04 30.543098 -19 34 17.30413
 2018-Sep-21 02:36  m  06 04 31.037861 -19 34 18.66983
 2018-Sep-21 02:37  m  06 04 31.532493 -19 34 20.03569
 2018-Sep-21 02:38  m  06 04 32.026992 -19 34 21.40173
 2018-Sep-21 02:39  m  06 04 32.521359 -19 34 22.76793
 2018-Sep-21 02:40  m  06 04 33.015593 -19 34 24.13429
 2018-Sep-21 02:41  m  06 04 33.509694 -19 34 25.50082
 2018-Sep-21 02:42  m  06 04 34.003662 -19 34 26.86750
 2018-Sep-21 02:43  m  06 04 34.497496 -19 34 28.23434
 2018-Sep-21 02:44  m  06 04 34.991196 -19 34 29.60134
 2018-Sep-21 02:45  m  06 04 35.484762 -19 34 30.96849
 2018-Sep-21 02:46  m  06 04 35.978194 -19 34 32.33579
 2018-Sep-21 02:47  m  06 04 36.471491 -19 34 33.70324
 2018-Sep-21 02:48  m  06 04 36.964653 -19 34 35.07084
 2018-Sep-21 02:49  m  06 04 37.457679 -19 34 36.43858
 2018-Sep-21 02:50  m  06 04 37.950571 -19 34 37.80647
 2018-Sep-21 02:51  m  06 04 38.443326 -19 34 39.17449
